IRIDIUM 153             
1 43078U 17083J   26187.68966779  .00000277  00000+0  91792-4 0  9990
2 43078  86.3964 282.3175 0002113  93.2382 266.9056 14.34218731448073
IRIDIUM 144             
1 43249U 18030A   26187.69601137  .00000100  00000+0  28618-4 0  9990
2 43249  86.3964 282.2436 0002299  98.0245 262.1211 14.34218132432932
IRIDIUM 150             
1 43257U 18030J   26187.68332520  .00000110  00000+0  32293-4 0  9990
2 43257  86.3964 282.3148 0002222  96.4536 263.6913 14.34218642432956
IRIDIUM 152             
1 43479U 18047D   26187.84633106  .00000218  00000+0  70645-4 0  9998
2 43479  86.3947  80.1122 0002188  81.9212 278.2232 14.34217891425302
IRIDIUM 147             
1 43480U 18047E   26187.71312309  .00000215  00000+0  69817-4 0  9991
2 43480  86.3948  80.1733 0002281  87.9808 272.1649 14.34217455425282
IRIDIUM 110             
1 43481U 18047F   26187.71946894  .00000235  00000+0  76782-4 0  9995
2 43481  86.3950  80.2631 0002313  76.3409 283.8044 14.34218959425276
